{"fetched_at":"2026-03-29T02:12:04Z","count":15717,"tles":[{"name":"STARLINK-34446","line1":"1 65495U 25198D   26087.53889342  .00027464  00000+0  93582-3 0  9991","line2":"2 65495  53.1593 183.6127 0001397  72.2668 287.8485 15.30205013 31507","category":"Starlink"}]}